SPOT 6                  
1 38755U 12047A   26191.86561084  .00000000  00000+0  99537-5 0  9996
2 38755  98.2110 258.8962 0001144  82.1990 277.9339 14.58536957736504
SPOT 7                  
1 40053U 14034A   26191.81012970  .00000068  00000+0  23187-4 0  9999
2 40053  98.0620 253.6920 0001551  96.4979 263.6399 14.60978069640583
